IRIDIUM 36 [-]          
1 24967U 97056C   23246.31894381  .00000535  00000+0  17603-3 0  9991
2 24967  86.3912  87.0989 0001996  82.8540 277.2883 14.36378990358465
IRIDIUM 39 [-]          
1 25042U 97069D   23246.39409654  .00000744  00000+0  19745-3 0  9994
2 25042  86.3932 130.6973 0017502 330.5834  29.4383 14.47333201354487
IRIDIUM 38 [-]          
1 25043U 97069E   23246.27905307  .00000524  00000+0  17084-3 0  9998
2 25043  86.4010 147.6152 0004293  90.1274 270.0415 14.36860602352164
IRIDIUM 42 [-]          
1 25077U 97077A   23246.48017579  .00000557  00000+0  18833-3 0  9991
2 25077  86.4021 152.8992 0002850  85.9734 274.1788 14.35179750347543
IRIDIUM 45 [-]          
1 25104U 97082A   23246.58692463  .00016117  00000+0  10667-2 0  9995
2 25104  86.3827 356.3286 0182665 198.3500 161.1085 14.94484509353781
IRIDIUM 24 [-]          
1 25105U 97082B   23246.60055304  .00000682  00000+0  20706-3 0  9992
2 25105  86.3971 356.6122 0013640  75.5008 284.7703 14.40706969349466
IRIDIUM 51 [-]          
1 25262U 98018A   23246.61250070  .00021287  00000+0  12094-2 0  9998
2 25262  86.3986   6.9531 0169818 154.5719 206.3996 15.01274205348139
